     2.10           GLONASS NAV DATA                        RINEX VERSION / TYPE
SPIDER V4,0,0,3554                      2015 03 24 00:21    PGM / RUN BY / DATE 
  2015     3     1   -1.257285475731e-008                    CORR TO SYSTEM TIME 
    16                                                      LEAP SECONDS        
                                                            END OF HEADER       
22 15 03 01 23 15  0.0 1.546600833535D-04 9.094947017729D-13 8.280000000000D+04
    7.135662597656D+03-1.780070304871D+00 1.862645149231D-09 0.000000000000D+00
    8.476078613281D+03 2.594277381897D+00-9.313225746155D-10-3.000000000000D+00
    2.299398779297D+04-3.912391662598D-01-1.862645149231D-09 0.000000000000D+00
24 15 03 01 23 15  0.0-1.217741519213D-04-0.000000000000D+00 8.280000000000D+04
    1.551242919922D+04-3.636932373047D-01 3.725290298462D-09 0.000000000000D+00
   -2.006920166016D+04 1.898126602173D-01 0.000000000000D+00 2.000000000000D+00
    2.638516113281D+03 3.560889244080D+00 9.313225746155D-10 0.000000000000D+00
 7 15 03 01 23 15  0.0-1.158798113465D-04-0.000000000000D+00 8.295000000000D+04
    7.232980957031D+03-2.983207702637D-01 0.000000000000D+00 0.000000000000D+00
    2.333006884766D+04-9.775514602661D-01-1.862645149231D-09 5.000000000000D+00
    7.414436523438D+03 3.377011299133D+00-9.313225746155D-10 0.000000000000D+00
23 15 03 01 23 45  0.0 3.154389560223D-05-3.637978807092D-12 8.460000000000D+04
    1.360287939453D+04-1.393836021423D+00 3.725290298462D-09 0.000000000000D+00
   -4.998184570313D+03 2.516471862793D+00-9.313225746155D-10 3.000000000000D+00
    2.099091552734D+04 1.502459526062D+00-9.313225746155D-10 0.000000000000D+00
13 15 03 01 23 45  0.0-4.737805575132D-04-9.094947017729D-13 8.460000000000D+04
    1.881101220703D+04 2.080707550049D+00 4.656612873077D-09 0.000000000000D+00
   -7.999926757813D+03-2.773332595825D-01-1.862645149231D-09-2.000000000000D+00
    1.524277685547D+04-2.709733009338D+00-0.000000000000D+00 0.000000000000D+00
 7 15 03 01 23 45  0.0-1.158807426691D-04-0.000000000000D+00 8.460000000000D+04
    6.202955078125D+03-8.665323257446D-01-0.000000000000D+00 0.000000000000D+00
    2.099931201172D+04-1.574077606201D+00-9.313225746155D-10 5.000000000000D+00
    1.312868896484D+04 2.931069374084D+00-9.313225746155D-10 0.000000000000D+00
12 15 03 01 23 45  0.0-3.760680556297D-06 0.000000000000D+00 8.460000000000D+04
    2.535141064453D+04-2.758827209473D-01 2.793967723846D-09 0.000000000000D+00
   -2.804497070313D+02-1.679363250732D-01-1.862645149231D-09-1.000000000000D+00
   -1.974438964844D+03-3.582422256470D+00 1.862645149231D-09 0.000000000000D+00
22 15 03 01 23 45  0.0 1.546666026115D-04 9.094947017729D-13 8.460000000000D+04
    4.368112792969D+03-1.277636528015D+00 0.000000000000D+00 0.000000000000D+00
    1.322559570313D+04 2.634501457214D+00-9.313225746155D-10-3.000000000000D+00
    2.141244824219D+04-1.354290962219D+00-1.862645149231D-09 0.000000000000D+00
24 15 03 01 23 45  0.0-1.217750832438D-04-0.000000000000D+00 8.460000000000D+04
    1.450331005859D+04-7.163715362549D-01 4.656612873077D-09 0.000000000000D+00
   -1.900740380859D+04 9.995183944702D-01-0.000000000000D+00 2.000000000000D+00
    8.863115722656D+03 3.310359001160D+00 0.000000000000D+00 0.000000000000D+00
 8 15 03 01 23 45  0.0-2.638995647430D-05-0.000000000000D+00 8.514000000000D+04
    1.522084228516D+04 4.126749038696D-01 0.000000000000D+00 0.000000000000D+00
    2.010628076172D+04 3.486680984497D-01-1.862645149231D-09 6.000000000000D+00
   -3.729212890625D+03 3.522745132446D+00 0.000000000000D+00 0.000000000000D+00
